QIANFAN-1               
1 60379U 24140A   25342.84127301  .00000150  00000+0  21331-3 0  9996
2 60379  88.9755 299.6836 0015838 222.7056 137.2866 13.50977168 66823
QIANFAN-2               
1 60380U 24140B   25342.87027942  .00000136  00000+0  19176-3 0  9999
2 60380  88.9741 299.5205 0011861 190.4083 169.6824 13.50980786 66881
QIANFAN-3               
1 60381U 24140C   25342.80438079  .00000136  00000+0  19274-3 0  9999
2 60381  88.9734 299.6603 0012607 204.9144 155.1400 13.50981275 66788
QIANFAN-4               
1 60382U 24140D   25342.85362491  .00000133  00000+0  18692-3 0  9999
2 60382  88.9759 299.5518 0012009 193.4379 166.6454 13.50981509 66919
QIANFAN-5               
1 60383U 24140E   25342.82906161  .00000130  00000+0  18341-3 0  9993
2 60383  88.9734 299.6832 0013606 217.8209 142.1987 13.50978971 66773
QIANFAN-6               
1 60384U 24140F   25342.84965635  .00000134  00000+0  18859-3 0  9995
2 60384  88.9760 299.4262 0011960 199.9055 160.1631 13.50979459 66978
QIANFAN-7               
1 60385U 24140G   25342.81963921  .00001277  00000+0  51211-3 0  9997
2 60385  88.9777 294.1812 0017201  57.1111 303.1736 14.27641736 69834
QIANFAN-8               
1 60386U 24140H   25342.85790837  .00000135  00000+0  19073-3 0  9998
2 60386  88.9762 299.6627 0015334 203.8764 156.1677 13.50977419 66823
